PROBA-1                 
1 26958U 01049B   26200.85872284  .00000216  00000+0  18344-4 0  9990
2 26958  97.9603 210.5350 0055216  14.1607 346.1152 15.07621546348543
CUTE-1 (CO-55)          
1 27844U 03031E   26200.84277556  .00000127  00000+0  73652-4 0  9992
2 27844  98.6745 208.9919 0010867  90.7577 269.4847 14.24353232196321
CUBESAT XI-IV (CO-57)   
1 27848U 03031J   26200.49623929  .00000096  00000+0  61252-4 0  9994
2 27848  98.6776 208.3362 0010654 108.0973 252.1367 14.23635874195972
APRIZESAT 4             
1 35684U 09041D   26200.75875928  .00000276  00000+0  39769-4 0  9993
2 35684  98.1400 276.7270 0042514 214.3888 145.4573 14.83917268916195
APRIZESAT 3             
1 35686U 09041F   26200.86664384  .00000126  00000+0  16715-4 0  9999
2 35686  98.2107 355.6652 0060697 320.2786  39.3997 14.96316274921268
PROBA-2                 
1 36037U 09059B   26200.49610077  .00000062  00000+0  24966-4 0  9994
2 36037  98.2463  23.4029 0013312 175.3918 184.7404 14.54874597886225
APRIZESAT 5             
1 37792U 11044E   26200.77267601  .00000332  00000+0  49423-4 0  9997
2 37792  98.2447 134.7386 0050699 257.5539 101.9996 14.81131505803613
APRIZESAT 6             
1 37793U 11044F   26200.73255862  .00000306  00000+0  50857-4 0  9994
2 37793  98.2331 111.8934 0042688 343.6980  71.2413 14.76960423801958
PROBA-V                 
1 39159U 13021A   26200.87175322  .00000021  00000+0  27089-4 0  9991
2 39159  98.3608 177.8686 0005072  49.0711 311.0907 14.23603868685766
APRIZESAT 7             
1 39416U 13066A   26200.82381661  .00000673  00000+0  71837-4 0  9999
2 39416  97.7723 153.5787 0037322 102.5790 257.9607 14.91625054686099
APRIZESAT 8             
1 39425U 13066K   26200.82995963  .00000346  00000+0  43423-4 0  9992
2 39425  97.8230 147.8460 0045904 176.5766 183.5773 14.87700170684528
BUGSAT-1 (TITA)         
1 40014U 14033E   26200.84561317  .00001803  00000+0  97160-4 0  9993
2 40014  98.0428 295.3126 0029034  70.9189 289.5182 15.15907103660786
SAUDISAT 4              
1 40016U 14033G   26200.85105756  .00000223  00000+0  36208-4 0  9998
2 40016  97.7625 345.8641 0043896 328.7138  31.1463 14.79578171650900
APRIZESAT 9             
1 40018U 14033J   26200.31163065  .00000296  00000+0  50788-4 0  9997
2 40018  97.9100 332.7318 0067513  96.9929 263.8964 14.74255546648294
APRIZESAT 10            
1 40019U 14033K   26200.30346157  .00000299  00000+0  54797-4 0  9999
2 40019  97.9686 326.5530 0079059 170.2559 190.0203 14.70913739646975
TECHDEMOSAT-1 (TDS-1)   
1 40076U 14037H   26200.48726536  .00003617  00000+0  20513-3 0  9993
2 40076  98.3834 195.9154 0007291 146.0018 214.1679 15.13712273653115
TECHNOSAT               
1 42829U 17042E   26200.42789739  .00001246  00000+0  91427-4 0  9997
2 42829  97.4324 356.8685 0017021 349.5858  10.5014 15.05123837491550
FLYING LAPTOP           
1 42831U 17042G   26200.84554201  .00002067  00000+0  16447-3 0  9990
2 42831  97.4834 355.1546 0019453  17.7534 342.4366 15.01331609491352
HAWK-A                  
1 43765U 18099H   26200.70037655  .00003636  00000+0  14617-3 0  9994
2 43765  97.3891 252.5166 0035235 168.2088 191.9983 15.24998121418052
HAWK-B                  
1 43794U 18099AN  26200.69531874  .00003121  00000+0  13342-3 0  9999
2 43794  97.3942 251.8577 0031831 186.1309 173.9543 15.23144185417987
HAWK-C                  
1 43799U 18099AT  26200.66806317  .00004535  00000+0  16214-3 0  9999
2 43799  97.3867 253.5586 0040763 168.1174 192.1037 15.28532124418870
SALSAT                  
1 46495U 20068K   26200.45326485  .00003827  00000+0  13372-3 0  9999
2 46495  97.8865 205.4942 0009671 177.8105 182.3178 15.30206359320291
HAWK-2C                 
1 47502U 21006CT  26200.68463194  .00003282  00000+0  98807-4 0  9998
2 47502  97.2259 244.3509 0008675  88.2208 272.0029 15.35020730304482
HAWK-2A                 
1 47505U 21006CW  26200.68679383  .00003332  00000+0  10024-3 0  9990
2 47505  97.2301 245.0497 0008225  91.7183 268.5003 15.35041737304481
HAWK-2B                 
1 47508U 21006CZ  26200.67994226  .00003763  00000+0  11241-3 0  9998
2 47508  97.2173 243.3239 0008759  90.0443 270.1804 15.35172368304482
HAWK-3B                 
1 48931U 21059BE  26200.49246955  .00028211  00000+0  21570-3 0  9997
2 48931  97.6636  40.3202 0004715 183.9849 176.1377 15.72127620282922
HAWK-3C                 
1 48948U 21059BX  26200.49215254  .00030963  00000+0  23656-3 0  9997
2 48948  97.6753  46.0607 0005102 183.2266 176.8964 15.72126527282923
HAWK-3A                 
1 48957U 21059CG  26200.49204082  .00029976  00000+0  22908-3 0  9995
2 48957  97.6699  43.2394 0005005 185.6574 174.4632 15.72126850282929
HAWK-5C                 
1 52754U 22057Y   26200.41182567  .00010379  00000+0  17167-3 0  9997
2 52754  97.6630   2.1889 0002450 326.0497  34.0598 15.52417418231346
HAWK-5B                 
1 52756U 22057AA  26200.86285558  .00011041  00000+0  18246-3 0  9998
2 52756  97.6641   1.0246 0003087 309.7466  50.3513 15.52422746231412
